#dP2023  5 28 18  0  0.00000000      96 __u+U ITR00 EXT  IAC
## 2264  64800.00000000   900.00000000 60092 0.7500000000000
+  119   C06C07C08C09C10C11C12C13C14C16C19C20C21C22C23C24C25
+        C26C27C28C29C30C32C33C34C35C36C37C38C39C40C41C42C43
+        C44C45C46E02E03E04E05E07E08E09E10E11E12E13E14E15E18
+        E19E21E24E25E26E27E30E31E33E34E36G01G02G03G04G05G06
+        G07G08G09G10G11G12G13G14G15G16G17G18G19G20G21G22G23
+        G24G25G26G27G28G29G30G31G32J02J03J04R01R02R03R04R05
+        R07R08R09R11R12R13R14R15R16R17R18R19R20R21R22R24R25
++        10 11 11 11 10 11  9 10  9 10  8  8  9  8  9  7  9
++         8  9  7  7  9  7 10  9  7  8  9 10  9  9  7  8  9
++         8  9  8  6  6  6  6  8  8  7  7  7  7  7  7  6  6
++         7  8  8  7  8  8  7  6  8  8  8  7  8  6  6  6  7
++         7  6  6  9  7  8  7  8  8  8  7  7  7  6  7  6  7
++         8  6  7  7  7  7  6  7  6  9 10  9  8  9  8  8  8
++         8  7  8  9  7  9  9 10  9  8  7  7  8  9  9  9  8
%c M  cc GPS ccc cccc cccc cccc cccc ccccc ccccc ccccc ccccc
%c cc cc ccc ccc cccc cccc cccc cccc ccccc ccccc ccccc ccccc
%f  0.0000000  0.000000000  0.00000000000  0.000000000000000
%f  0.0000000  0.000000000  0.00000000000  0.000000000000000
%i    0    0    0    0      0      0      0      0         0
%i    0    0    0    0      0      0      0      0         0
/* IAC                                ULTRA-RAPID PREDICTION
/* S/V CLOCKS ARE ALIGNED TO GNSS TIME                      
/* G:C1WC2W R:C1PC2P E:C1XC5X C:C2IC6I J:C1CC2S             
/* PCV:IGS20_2247 OL/AL:FES2004  NONE     YN ORB:CoN CLK:CoN
*  2023 05 28 19  0  0.00000000
PC06 -10965.137109  23554.904077  33184.702816   -186.212085
PC07 -14286.578869  39581.259415  -3989.315494    -87.928543
PC08   1603.017237  32499.178940 -26723.884259    474.383551
PC09    655.370250  24795.322509  34536.276533    600.337732
PC10  -7759.132628  40162.527460 -11023.301255    -70.605610
PC11   5543.936008  14572.823397 -23083.477085    644.053774
PC12 -15288.880491  14729.280092 -18086.424850    671.978585
PC13   7352.023210  35823.366204 -20617.384477    284.577558
PC14   1517.488290  24304.598273  13705.963925    326.245601
PC16 -14641.784385  22436.082175  32733.535144     62.900519
PC19  -8256.440040 -17628.496863 -19956.246374   -915.629439
PC20   4325.440613 -26676.644682  -6861.758768    539.326110
PC21 -15346.598199  20311.333006 -11451.240334   -918.293124
PC22 -16756.495628   2069.766834 -22223.500293   -466.831820
PC23  21843.272297   8929.093902 -14888.114146   -941.134843
PC24   2366.088079  21803.114670  17236.533737     -1.526464
PC25  18292.061032  21047.695422    751.654432    135.858675
PC26 -12640.855362  10284.861398  22641.197902   -126.812648
PC27  22241.413166 -12192.843868  11625.394099    146.944592
PC28  27483.854746  -1719.130803  -4517.203083    108.909082
PC29 -16554.680528 -10547.312461  19823.824853    126.533138
PC30   4688.436698 -16674.342869  21871.687321     -0.652833
PC32  15234.555123 -20316.664388  11565.826558   -555.915508
PC33   8326.742081  17710.017665  19910.277713   -887.239262
PC34  -3116.816212  16622.567459 -22210.834992    180.802353
PC35 -27315.488713   2251.594651   5128.058196    618.649950
PC36 -17410.716237 -21762.282416  -1443.706580   -415.092764
PC37  13681.434799  -8994.189964 -22581.940067   -784.140206
PC38  -5630.092729  28463.526072 -30519.721413     81.406609
PC39 -19396.031673  21947.643384  30312.646654     -3.103619
PC40 -20796.461217  36751.781236  -2535.441371    -24.556982
PC41  16645.672326  -1283.897556  22413.581466   -933.691655
PC42  -5181.156521  26866.092209   5621.220346   -672.416184
PC43  15777.923565  11136.392900 -20166.407947     23.568031
PC44 -21838.768032  13032.488217 -11470.683030    120.826394
PC45 -21718.546716  -8562.590746  15305.874794   -103.354145
PC46  -3827.099507 -22336.135633 -16306.690454    -57.403364
PE02 -11551.141440  17863.095489  20574.326085     40.800946
PE03 -22016.686927  19691.252752   2060.481925    -20.918364
PE04   6977.987295 -22187.327798 -18292.778102   -132.435461
PE05 -24436.840991   5544.755467 -15752.152548    -63.194246
PE07  12285.244827  11903.284109  24167.786928    -48.508643
PE08  -7312.695970  22197.566033  18181.146276    -90.238279
PE09 -12083.790588 -11875.315913 -24263.907002    -30.649381
PE10 -13638.280745 -18198.117607  18934.462449   -537.095828
PE11 -22586.320957 -15957.008255  10514.332176   2060.316941
PE12  -3253.509048 -17588.349926  23570.524056   -557.428116
PE13  22099.242612  16174.290701 -11250.478884    -19.214394
PE14  10299.151602  16815.262013 -23513.794588    238.192110
PE15   2942.691236  17451.098618 -23730.335254    -25.229092
PE18 -21123.930739  -2720.740955  16264.322449    117.202557
PE19  23285.121425 -18266.836640    509.085450  -2427.871301
PE21  17079.540673   2600.071363 -24036.197479   -531.761121
PE24 -12678.904162 -23290.383519  13157.269529   -124.111691
PE25 -17100.813211  -2999.030121  23978.268616   -605.831981
PE26  27975.385622   4901.887512   8340.101113    117.691948
PE27  13067.678546  22702.910034 -13775.761945    -60.832061
PE30    929.734228  29156.625090   4980.956678   -210.125793
PE31  -1411.727829 -29225.037678  -4476.382355   -524.727115
PE33  17811.436737  -8406.871936  22097.100185   -443.861997
PE34 -17656.493028   8551.604953 -22177.753897    -47.850827
PE36 -28064.275140  -5437.593317  -7663.013515    -62.944280
PG01  21225.060453  14762.390178  -7181.928923    182.055644
PG02   8140.058169  16447.908099 -18834.013932   -591.477473
PG03  12498.873580  17580.768677  15444.421258   -289.224028
PG04  15494.029546   6674.566080  20553.663901     53.388271
PG05  -5131.189114 -25972.541162  -1234.786348   -128.956348
PG06  13998.236579  -8812.078077  20864.156806    587.220356
PG07  25202.413085   5713.562462  -6691.427018    166.787721
PG08   4788.919554  15225.039327 -21243.068169   -124.680171
PG09  21556.336219  -3280.774151  15122.276458   -148.612492
PG10 -11651.704147  13275.997094 -19555.218318    -38.835866
PG11  -1407.268804 -16638.020599  20672.682910   -213.919554
PG12 -10090.451164 -20610.444913  13164.026005   -381.678523
PG13   4356.343341 -17642.585237 -19473.730204    526.349239
PG14  13759.115966 -10028.899264 -20335.641148     72.215734
PG15  -7401.490303 -14815.216996 -21189.032792     43.720431
PG16   -343.815511  26239.851243   1599.313502   -496.899044
PG17  22617.873509 -13960.898162  -1011.664211    716.451035
PG18 -24278.799073  -3173.584341 -10486.752548   -285.149314
PG19  19386.689720 -16610.875617   6497.167947    323.056329
PG20   -942.629999 -25211.923365   8633.403113    431.068699
PG21  16391.780591  15685.441973 -13932.877359    153.529037
PG22 -16365.348105  18469.079739  10059.144223    488.909831
PG23 -15049.846737   -151.673408 -21888.143359     28.080510
PG24 -19116.509546 -15149.999998 -11359.891965   -205.238813
PG25 -15170.211798  -9266.379158  19502.922006    446.015670
PG26  -6113.846836  21761.604063  13553.598257    240.123769
PG27  -6917.250358  19532.815982 -16625.266139     27.902608
PG28 -15620.031839   8630.095023  19648.250462     80.940125
PG29 -20417.902903   -644.771645  16970.068958   -601.018230
PG30  21124.591393  -3408.086667 -15784.192241   -514.516112
PG31  -4442.855607  14700.667608  21476.843247   -217.032450
PG32 -20740.779015  16409.367042    735.170321   -487.436288
PJ02 -27255.884089  25660.579775  24561.389603     -0.191809
PJ03 -31495.256310  16954.000792 -17627.747531      5.152600
PJ04 -22350.849367  32930.412326  -9016.100656     94.857465
PR01  -6449.562777 -10538.030845 -22308.134675     58.362436
PR02 -14793.670667   7404.225593 -19344.546603    -22.781999
PR03 -14361.316726  20434.916309  -4992.215372     78.653333
PR04  -6257.412448  21743.989736  11802.681176    188.979356
PR05   5335.562644  11361.933027  22218.044311    113.272301
PR07  14218.514492 -20772.594486   4313.000606     56.844172
PR08   6036.558221 -21771.583845 -11805.367796    -71.017083
PR09  14921.274919   5212.566506 -20028.252115    122.698300
PR11  -5995.511440 -21382.126260 -12523.478513    -66.194395
PR12 -15135.225431 -19546.889709   6340.216034     27.649864
PR13 -15181.012542  -7247.958624  19162.234770    -35.530279
PR14  -5621.589206  11456.847652  22103.339849     24.708315
PR15   6536.492663  21851.106481  11451.589079     89.041440
PR16  15156.695279  19648.559632  -5975.098139     15.033933
PR17 -17563.138453   7665.962699 -16855.373685    634.023446
PR18   -616.690581  10454.081504 -23250.791499     83.809837
PR19  15119.650271   8842.206952 -18550.231420   -234.275281
PR20  25509.405904   1051.371291    -24.402160    -93.678862
PR21  16334.347120  -7948.664979  17888.028593    -10.974914
PR22      0.990281 -10890.126150  23087.386131     80.145352
PR24 -25508.000555    118.682415   -593.453120    174.288411
PR25  17973.009108  -7037.251328  16666.450026     61.391550
EOF
